start=new Date('2021-08-29T00:00:00.000Z').valueOf();
sats=[{"NORAD_CAT_ID":"46722","LAUNCH_DATE":"2020-10-18","ARG_OF_PERICENTER":"88.9309","EPOCH":"2021-08-28T20:25:02.392896","MEAN_MOTION":"15.06395285","DECAY_DATE":null,"APOAPSIS":"548.428","TIME_SYSTEM":"UTC","EPHEMERIS_TYPE":"0","BSTAR":"0.00013174000000","ECCENTRICITY":"0.00017330","MEAN_MOTION_DDOT":"0.0000000000000","ELEMENT_SET_NO":"999","MEAN_MOTION_DOT":"0.00001681","PERIOD":"95.592","RCS_SIZE":"LARGE","FILE":"3104555","TLE_LINE2":"2 46722  53.0547 120.9829 0001733  88.9309 271.1878 15.06395285 47648","MEAN_ANOMALY":"271.1878","REF_FRAME":"TEME","OBJECT_ID":"2020-073BE","MEAN_ELEMENT_THEORY":"SGP4","SITE":"AFETR","TLE_LINE1":"1 46722U 20073BE  21240.85072214  .00001681  00000-0  13174-3 0  9996","PERIAPSIS":"546.028","INCLINATION":"53.0547","OBJECT_TYPE":"PAYLOAD","CLASSIFICATION_TYPE":"U","GP_ID":"183638281","REV_AT_EPOCH":"4764","OBJECT_NAME":"STARLINK-1825","CENTER_NAME":"EARTH","COUNTRY_CODE":"US","SEMIMAJOR_AXIS":"6925.363","RA_OF_ASC_NODE":"120.9829"},{"NORAD_CAT_ID":"46723","LAUNCH_DATE":"2020-10-18","ARG_OF_PERICENTER":"86.9760","MEAN_MOTION":"15.06404037","EPOCH":"2021-08-28T21:02:10.762944","TIME_SYSTEM":"UTC","APOAPSIS":"548.687","EPHEMERIS_TYPE":"0","DECAY_DATE":null,"BSTAR":"0.00003741400000","MEAN_MOTION_DDOT":"0.0000000000000","ECCENTRICITY":"0.00021450","ELEMENT_SET_NO":"999","MEAN_MOTION_DOT":"0.00000276","RCS_SIZE":"LARGE","PERIOD":"95.592","FILE":"3104555","TLE_LINE2":"2 46723  53.0556  80.8696 0002145  86.9760 273.1474 15.06404037 48216","MEAN_ANOMALY":"273.1474","REF_FRAME":"TEME","OBJECT_ID":"2020-073BF","MEAN_ELEMENT_THEORY":"SGP4","PERIAPSIS":"545.716","SITE":"AFETR","TLE_LINE1":"1 46723U 20073BF  21240.87651346  .00000276  00000-0  37414-4 0  9991","INCLINATION":"53.0556","OBJECT_TYPE":"PAYLOAD","CLASSIFICATION_TYPE":"U","GP_ID":"183639029","REV_AT_EPOCH":"4821","CENTER_NAME":"EARTH","OBJECT_NAME":"STARLINK-1826","SEMIMAJOR_AXIS":"6925.336","COUNTRY_CODE":"US","RA_OF_ASC_NODE":"80.8696"},{"RA_OF_ASC_NODE":"76.1569","COUNTRY_CODE":"US","SEMIMAJOR_AXIS":"6817.736","REV_AT_EPOCH":"4827","CENTER_NAME":"EARTH","OBJECT_NAME":"STARLINK-1827","GP_ID":"183638779","CLASSIFICATION_TYPE":"U","OBJECT_TYPE":"PAYLOAD","INCLINATION":"53.0510","PERIAPSIS":"434.266","SITE":"AFETR","TLE_LINE1":"1 46724U 20073BG  21240.81697550  .00017417  00000-0  40780-3 0  9997","MEAN_ELEMENT_THEORY":"SGP4","OBJECT_ID":"2020-073BG","REF_FRAME":"TEME","MEAN_ANOMALY":"20.3725","TLE_LINE2":"2 46724  53.0510  76.1569 0007825 339.6967  20.3725 15.42206244 48278","FILE":"3104555","RCS_SIZE":"LARGE","PERIOD":"93.373","MEAN_MOTION_DOT":"0.00017417","ELEMENT_SET_NO":"999","ECCENTRICITY":"0.00078250","MEAN_MOTION_DDOT":"0.0000000000000","BSTAR":"0.00040780000000","APOAPSIS":"444.936","TIME_SYSTEM":"UTC","EPHEMERIS_TYPE":"0","DECAY_DATE":null,"MEAN_MOTION":"15.42206244","EPOCH":"2021-08-28T19:36:26.683200","ARG_OF_PERICENTER":"339.6967","LAUNCH_DATE":"2020-10-18","NORAD_CAT_ID":"46724"},{"REF_FRAME":"TEME","MEAN_ELEMENT_THEORY":"SGP4","OBJECT_ID":"2020-073BH","INCLINATION":"53.0542","SITE":"AFETR","TLE_LINE1":"1 46725U 20073BH  21240.88017793 -.00001192  00000-0 -61074-4 0  9995","PERIAPSIS":"545.448","OBJECT_TYPE":"PAYLOAD","GP_ID":"183638031","CLASSIFICATION_TYPE":"U","OBJECT_NAME":"STARLINK-1828","REV_AT_EPOCH":"4765","CENTER_NAME":"EARTH","SEMIMAJOR_AXIS":"6925.274","COUNTRY_CODE":"US","RA_OF_ASC_NODE":"120.8518","NORAD_CAT_ID":"46725","ARG_OF_PERICENTER":"76.4118","LAUNCH_DATE":"2020-10-18","DECAY_DATE":null,"APOAPSIS":"548.829","TIME_SYSTEM":"UTC","EPHEMERIS_TYPE":"0","EPOCH":"2021-08-28T21:07:27.373152","MEAN_MOTION":"15.06424379","MEAN_MOTION_DDOT":"0.0000000000000","ECCENTRICITY":"0.00024410","BSTAR":"-0.00006107400000","MEAN_MOTION_DOT":"-0.00001192","ELEMENT_SET_NO":"999","FILE":"3104555","PERIOD":"95.591","RCS_SIZE":"LARGE","TLE_LINE2":"2 46725  53.0542 120.8518 0002441  76.4118 283.7143 15.06424379 47659","MEAN_ANOMALY":"283.7143"},{"FILE":"3104555","PERIOD":"95.592","RCS_SIZE":"LARGE","MEAN_MOTION_DOT":"0.00000797","ELEMENT_SET_NO":"999","MEAN_ANOMALY":"251.6118","TLE_LINE2":"2 46726  53.0554 105.7372 0010130 108.5972 251.6118 15.06405555 47866","ARG_OF_PERICENTER":"108.5972","LAUNCH_DATE":"2020-10-18","NORAD_CAT_ID":"46726","ECCENTRICITY":"0.00101300","MEAN_MOTION_DDOT":"0.0000000000000","BSTAR":"0.00007258600000","DECAY_DATE":null,"APOAPSIS":"554.212","TIME_SYSTEM":"UTC","EPHEMERIS_TYPE":"0","EPOCH":"2021-08-28T21:43:59.337696","MEAN_MOTION":"15.06405555","CENTER_NAME":"EARTH","REV_AT_EPOCH":"4786","OBJECT_NAME":"STARLINK-1829","GP_ID":"183637782","CLASSIFICATION_TYPE":"U","RA_OF_ASC_NODE":"105.7372","SEMIMAJOR_AXIS":"6925.332","COUNTRY_CODE":"US","MEAN_ELEMENT_THEORY":"SGP4","OBJECT_ID":"2020-073BJ","REF_FRAME":"TEME","OBJECT_TYPE":"PAYLOAD","INCLINATION":"53.0554","TLE_LINE1":"1 46726U 20073BJ  21240.90554789  .00000797  00000-0  72586-4 0  9998","SITE":"AFETR","PERIAPSIS":"540.181"},{"REV_AT_EPOCH":"4821","CENTER_NAME":"EARTH","OBJECT_NAME":"STARLINK-1830","GP_ID":"183638530","CLASSIFICATION_TYPE":"U","RA_OF_ASC_NODE":"80.9438","COUNTRY_CODE":"US","SEMIMAJOR_AXIS":"6925.355","OBJECT_ID":"2020-073BK","MEAN_ELEMENT_THEORY":"SGP4","REF_FRAME":"TEME","OBJECT_TYPE":"PAYLOAD","PERIAPSIS":"545.697","SITE":"AFETR","TLE_LINE1":"1 46727U 20073BK  21240.86176483  .00002308  00000-0  17381-3 0  9996","INCLINATION":"53.0536","RCS_SIZE":"LARGE","PERIOD":"95.592","FILE":"3104555","ELEMENT_SET_NO":"999","MEAN_MOTION_DOT":"0.00002308","MEAN_ANOMALY":"277.2235","TLE_LINE2":"2 46727  53.0536  80.9438 0002199  82.9004 277.2235 15.06398040 48215","LAUNCH_DATE":"2020-10-18","ARG_OF_PERICENTER":"82.9004","NORAD_CAT_ID":"46727","BSTAR":"0.00017381000000","ECCENTRICITY":"0.00021990","MEAN_MOTION_DDOT":"0.0000000000000","MEAN_MOTION":"15.06398040","EPOCH":"2021-08-28T20:40:56.481312","APOAPSIS":"548.742","EPHEMERIS_TYPE":"0","TIME_SYSTEM":"UTC","DECAY_DATE":null},{"NORAD_CAT_ID":"46728","ARG_OF_PERICENTER":"88.4068","LAUNCH_DATE":"2020-10-18","DECAY_DATE":null,"EPHEMERIS_TYPE":"0","APOAPSIS":"548.764","TIME_SYSTEM":"UTC","EPOCH":"2021-08-28T20:25:40.719936","MEAN_MOTION":"15.06402407","MEAN_MOTION_DDOT":"0.0000000000000","ECCENTRICITY":"0.00022490","BSTAR":"0.00017834000000","MEAN_MOTION_DOT":"0.00002376","ELEMENT_SET_NO":"999","FILE":"3104555","RCS_SIZE":"LARGE","PERIOD":"95.592","TLE_LINE2":"2 46728  53.0549  95.9779 0002249  88.4068 271.7179 15.06402407 47994","MEAN_ANOMALY":"271.7179","REF_FRAME":"TEME","MEAN_ELEMENT_THEORY":"SGP4","OBJECT_ID":"2020-073BL","INCLINATION":"53.0549","TLE_LINE1":"1 46728U 20073BL  21240.85116574  .00002376  00000-0  17834-3 0  9999","SITE":"AFETR","PERIAPSIS":"545.649","OBJECT_TYPE":"PAYLOAD","CLASSIFICATION_TYPE":"U","GP_ID":"183639279","REV_AT_EPOCH":"4799","OBJECT_NAME":"STARLINK-1831","CENTER_NAME":"EARTH","COUNTRY_CODE":"US","SEMIMAJOR_AXIS":"6925.341","RA_OF_ASC_NODE":"95.9779"},{"LAUNCH_DATE":"2020-10-24","ARG_OF_PERICENTER":"80.0093","NORAD_CAT_ID":"46740","BSTAR":"0.00017386000000","ECCENTRICITY":"0.00014440","MEAN_MOTION_DDOT":"0.0000000000000","MEAN_MOTION":"15.06410359","EPOCH":"2021-08-28T13:21:44.131392","TIME_SYSTEM":"UTC","APOAPSIS":"548.182","EPHEMERIS_TYPE":"0","DECAY_DATE":null,"RCS_SIZE":"LARGE","PERIOD":"95.591","FILE":"3104555","ELEMENT_SET_NO":"999","MEAN_MOTION_DOT":"0.00002310","MEAN_ANOMALY":"280.1059","TLE_LINE2":"2 46740  53.0556 192.3059 0001444  80.0093 280.1059 15.06410359 47289","OBJECT_ID":"2020-074B","MEAN_ELEMENT_THEORY":"SGP4","REF_FRAME":"TEME","OBJECT_TYPE":"PAYLOAD","PERIAPSIS":"546.182","TLE_LINE1":"1 46740U 20074B   21240.55676078  .00002310  00000-0  17386-3 0  9991","SITE":"AFETR","INCLINATION":"53.0556","REV_AT_EPOCH":"4728","OBJECT_NAME":"STARLINK-1848","CENTER_NAME":"EARTH","GP_ID":"183638032","CLASSIFICATION_TYPE":"U","RA_OF_ASC_NODE":"192.3059","COUNTRY_CODE":"US","SEMIMAJOR_AXIS":"6925.317"},{"RA_OF_ASC_NODE":"187.2423","COUNTRY_CODE":"US","SEMIMAJOR_AXIS":"6925.327","CENTER_NAME":"EARTH","REV_AT_EPOCH":"4736","OBJECT_NAME":"STARLINK-1865","GP_ID":"183637783","CLASSIFICATION_TYPE":"U","OBJECT_TYPE":"PAYLOAD","INCLINATION":"53.0537","PERIAPSIS":"546.091","SITE":"AFETR","TLE_LINE1":"1 46741U 20074C   21240.57380462  .00000195  00000-0  32018-4 0  9992","MEAN_ELEMENT_THEORY":"SGP4","OBJECT_ID":"2020-074C","REF_FRAME":"TEME","MEAN_ANOMALY":"302.5078","TLE_LINE2":"2 46741  53.0537 187.2423 0001589  57.6064 302.5078 15.06407142 47360","FILE":"3104555","PERIOD":"95.592","RCS_SIZE":"LARGE","MEAN_MOTION_DOT":"0.00000195","ELEMENT_SET_NO":"999","MEAN_MOTION_DDOT":"0.0000000000000","ECCENTRICITY":"0.00015890","BSTAR":"0.00003201800000","APOAPSIS":"548.292","TIME_SYSTEM":"UTC","EPHEMERIS_TYPE":"0","DECAY_DATE":null,"MEAN_MOTION":"15.06407142","EPOCH":"2021-08-28T13:46:16.719168","ARG_OF_PERICENTER":"57.6064","LAUNCH_DATE":"2020-10-24","NORAD_CAT_ID":"46741"},{"MEAN_MOTION":"15.06408593","EPOCH":"2021-08-28T13:03:49.066560","APOAPSIS":"548.247","EPHEMERIS_TYPE":"0","TIME_SYSTEM":"UTC","DECAY_DATE":null,"BSTAR":"0.00005266500000","MEAN_MOTION_DDOT":"0.0000000000000","ECCENTRICITY":"0.00015310","NORAD_CAT_ID":"46742","LAUNCH_DATE":"2020-10-24","ARG_OF_PERICENTER":"52.6804","TLE_LINE2":"2 46742  53.0544 187.3543 0001531  52.6804 307.4324 15.06408593 47355","MEAN_ANOMALY":"307.4324","ELEMENT_SET_NO":"999","MEAN_MOTION_DOT":"0.00000503","PERIOD":"95.592","RCS_SIZE":"LARGE","FILE":"3104555","PERIAPSIS":"546.127","SITE":"AFETR","TLE_LINE1":"1 46742U 20074D   21240.54431790  .00000503  00000-0  52665-4 0  9994","INCLINATION":"53.0544","OBJECT_TYPE":"PAYLOAD","REF_FRAME":"TEME","OBJECT_ID":"2020-074D","MEAN_ELEMENT_THEORY":"SGP4","COUNTRY_CODE":"US","SEMIMAJOR_AXIS":"6925.322","RA_OF_ASC_NODE":"187.3543","CLASSIFICATION_TYPE":"U","GP_ID":"183638531","CENTER_NAME":"EARTH","REV_AT_EPOCH":"4735","OBJECT_NAME":"STARLINK-1872"}];
